OBJECT_NAME,OBJECT_ID,EPOCH,MEAN_MOTION,ECCENTRICITY,INCLINATION,RA_OF_ASC_NODE,ARG_OF_PERICENTER,MEAN_ANOMALY,EPHEMERIS_TYPE,CLASSIFICATION_TYPE,NORAD_CAT_ID,ELEMENT_SET_NO,REV_AT_EPOCH,BSTAR,MEAN_MOTION_DOT,MEAN_MOTION_DDOT
IRIDIUM 138,2017-083B,2026-07-02T19:19:19.191936,14.34217781,.0002164,86.3993,315.1837,88.2190,271.9253,0,U,43071,999,44637,.10825E-4,.5E-6,0
IRIDIUM 116,2017-083C,2026-07-02T20:14:07.181952,14.34218003,.0002298,86.3978,315.4555,100.9762,259.1693,0,U,43072,999,44641,.18867E-4,.73E-6,0
IRIDIUM 130,2017-083D,2026-07-02T19:28:27.124320,14.34217543,.0002063,86.3988,315.7458,98.6739,261.4690,0,U,43073,999,44635,.92457E-5,.46E-6,0
IRIDIUM 151,2017-083E,2026-07-02T20:32:23.178048,14.34217878,.0002208,86.3981,315.5084,93.9085,266.2363,0,U,43074,999,44638,.11725E-4,.53E-6,0
IRIDIUM 134,2017-083F,2026-07-02T19:46:43.057344,14.34218468,.000218,86.3981,315.5298,95.1765,264.9680,0,U,43075,999,44634,.76438E-4,.234E-5,0
IRIDIUM 137,2017-083G,2026-07-02T20:04:59.253888,14.34217731,.0002597,86.3983,315.6176,99.0234,261.1256,0,U,43076,999,44641,.48435E-5,.33E-6,0
IRIDIUM 141,2017-083H,2026-07-02T19:55:51.182400,14.34217823,.0002195,86.3979,315.4501,91.8317,268.3130,0,U,43077,999,44641,.12539E-4,.55E-6,0
IRIDIUM 153,2017-083J,2026-07-02T18:46:59.378880,14.34218174,.0002147,86.3968,283.9507,91.8772,268.2670,0,U,43078,999,44751,.26538E-4,.94E-6,0
IRIDIUM 131,2017-083K,2026-07-02T19:37:35.171616,14.34218337,.0002237,86.3985,315.6423,93.3516,266.7936,0,U,43079,999,44634,.47588E-4,.153E-5,0
IRIDIUM 144,2018-030A,2026-07-02T17:15:39.398400,14.34217660,.0002269,86.3965,283.9060,98.1184,262.0269,0,U,43249,999,43236,.43207E-4,.141E-5,0
IRIDIUM 149,2018-030B,2026-07-02T17:24:47.452608,14.34217483,.000216,86.3960,283.8700,93.6826,266.4616,0,U,43250,999,43238,-.46864E-5,.7E-7,0
IRIDIUM 157,2018-030C,2026-07-02T19:32:39.418368,14.34218321,.000222,86.3964,283.8864,94.5868,265.5581,0,U,43251,999,43237,.55623E-4,.176E-5,0
IRIDIUM 140,2018-030D,2026-07-02T13:18:11.436192,14.34217831,.0002199,86.3966,284.0078,95.2990,264.8457,0,U,43252,999,43239,.28049E-4,.98E-6,0
IRIDIUM 145,2018-030E,2026-07-02T19:41:46.505760,14.34216640,.0002286,86.3962,283.8684,103.1169,257.0282,0,U,43253,999,43236,.97519E-4,.293E-5,0
IRIDIUM 146,2018-030F,2026-07-02T17:33:55.429920,14.34218537,.0002275,86.3965,283.9178,98.5342,261.6112,0,U,43254,999,43236,.67235E-4,.208E-5,0
IRIDIUM 148,2018-030G,2026-07-02T20:09:11.481408,14.34217508,.0002248,86.3963,283.9163,95.2680,264.8772,0,U,43255,999,43241,-.10429E-5,.17E-6,0
IRIDIUM 142,2018-030H,2026-07-02T19:23:31.417728,14.34218203,.0002314,86.3963,283.8178,98.7343,261.4115,0,U,43256,999,43237,.30945E-4,.106E-5,0
IRIDIUM 150,2018-030J,2026-07-02T16:57:23.428224,14.34218323,.0002195,86.3967,283.9772,96.2290,263.9156,0,U,43257,999,43238,.6665E-4,.206E-5,0
IRIDIUM 143,2018-030K,2026-07-02T16:29:59.129952,14.34216894,.0002259,86.3968,284.0782,98.4037,261.7415,0,U,43258,999,43231,.19069E-4,.73E-6,0
IRIDIUM 161,2018-047C,2026-07-02T16:46:42.449952,14.43281100,.000244,86.4475,81.9854,79.9577,280.1899,0,U,43478,999,42737,.10641E-3,.378E-5,0
IRIDIUM 152,2018-047D,2026-07-02T15:50:42.878400,14.34214940,.0002136,86.3951,81.8624,81.5878,278.5560,0,U,43479,999,42470,-.9656E-4,-.251E-5,0
IRIDIUM 147,2018-047E,2026-07-02T10:58:25.769280,14.34220530,.0002214,86.3952,81.9532,87.4612,272.6837,0,U,43480,999,42467,.91735E-4,.277E-5,0
IRIDIUM 110,2018-047F,2026-07-02T19:29:54.269952,14.34217917,.0002359,86.3953,81.8969,76.5312,283.6146,0,U,43481,999,42471,.14317E-4,.6E-6,0
IRIDIUM 162,2018-047G,2026-07-02T16:37:37.729056,14.43282750,.0002218,86.4472,81.8786,83.2263,276.9190,0,U,43482,999,42736,.10251E-3,.365E-5,0
IRIDIUM 160,2018-061A,2026-07-02T14:50:58.470720,14.34217839,.000225,86.3948,50.3439,85.9941,274.1512,0,U,43569,999,41558,.71013E-5,.4E-6,0
IRIDIUM 166,2018-061B,2026-07-02T13:47:02.474880,14.34218192,.0002225,86.3947,50.3129,88.8527,271.2924,0,U,43570,999,41560,.5858E-4,.184E-5,0
IRIDIUM 158,2018-061C,2026-07-02T14:41:50.462304,14.34217469,.0002002,86.3944,50.3065,84.1573,275.9851,0,U,43571,999,41557,-.16719E-5,.15E-6,0
IRIDIUM 165,2018-061D,2026-07-02T13:37:54.461280,14.34217863,.0002164,86.3948,50.3720,90.0240,270.1203,0,U,43572,999,41559,.15315E-4,.63E-6,0
IRIDIUM 155,2018-061E,2026-07-02T21:05:26.348352,14.34218723,.0002041,86.3943,50.1102,86.6083,273.5346,0,U,43573,999,41560,.50036E-4,.16E-5,0
IRIDIUM 154,2018-061F,2026-07-02T20:38:02.393088,14.34218220,.0002246,86.3949,50.2526,89.6278,270.5175,0,U,43574,999,41565,.20193E-4,.76E-6,0
IRIDIUM 163,2018-061G,2026-07-02T15:09:14.452128,14.34217640,.0002069,86.3944,50.2626,83.9398,276.2033,0,U,43575,999,41559,-.13049E-5,.16E-6,0
