IRIDIUM 138             
1 43071U 17083B   26183.80508324  .00000050  00000+0  10825-4 0  9998
2 43071  86.3993 315.1837 0002164  88.2190 271.9253 14.34217781446375
IRIDIUM 116             
1 43072U 17083C   26183.84313868  .00000073  00000+0  18867-4 0  9999
2 43072  86.3978 315.4555 0002298 100.9762 259.1693 14.34218003446413
IRIDIUM 130             
1 43073U 17083D   26183.81142505  .00000046  00000+0  92457-5 0  9993
2 43073  86.3988 315.7458 0002063  98.6739 261.4690 14.34217543446351
IRIDIUM 151             
1 43074U 17083E   26183.85582382  .00000053  00000+0  11725-4 0  9995
2 43074  86.3981 315.5084 0002208  93.9085 266.2363 14.34217878446385
IRIDIUM 134             
1 43075U 17083F   26183.82410946  .00000234  00000+0  76438-4 0  9992
2 43075  86.3981 315.5298 0002180  95.1765 264.9680 14.34218468446340
IRIDIUM 137             
1 43076U 17083G   26183.83679692  .00000033  00000+0  48435-5 0  9993
2 43076  86.3983 315.6176 0002597  99.0234 261.1256 14.34217731446413
IRIDIUM 141             
1 43077U 17083H   26183.83045350  .00000055  00000+0  12539-4 0  9991
2 43077  86.3979 315.4501 0002195  91.8317 268.3130 14.34217823446417
IRIDIUM 153             
1 43078U 17083J   26183.78263170  .00000094  00000+0  26538-4 0  9995
2 43078  86.3968 283.9507 0002147  91.8772 268.2670 14.34218174447513
IRIDIUM 131             
1 43079U 17083K   26183.81776819  .00000153  00000+0  47588-4 0  9993
2 43079  86.3985 315.6423 0002237  93.3516 266.7936 14.34218337446345
IRIDIUM 144             
1 43249U 18030A   26183.71920600  .00000141  00000+0  43207-4 0  9994
2 43249  86.3965 283.9060 0002269  98.1184 262.0269 14.34217660432368
IRIDIUM 149             
1 43250U 18030B   26183.72554922  .00000007  00000+0 -46864-5 0  9992
2 43250  86.3960 283.8700 0002160  93.6826 266.4616 14.34217483432387
IRIDIUM 157             
1 43251U 18030C   26183.81434512  .00000176  00000+0  55623-4 0  9993
2 43251  86.3964 283.8864 0002220  94.5868 265.5581 14.34218321432378
IRIDIUM 140             
1 43252U 18030D   26183.55429903  .00000098  00000+0  28049-4 0  9998
2 43252  86.3966 284.0078 0002199  95.2990 264.8457 14.34217831432391
IRIDIUM 145             
1 43253U 18030E   26183.82067715  .00000293  00000+0  97519-4 0  9993
2 43253  86.3962 283.8684 0002286 103.1169 257.0282 14.34216640432366
IRIDIUM 146             
1 43254U 18030F   26183.73189155  .00000208  00000+0  67235-4 0  9995
2 43254  86.3965 283.9178 0002275  98.5342 261.6112 14.34218537432367
IRIDIUM 148             
1 43255U 18030G   26183.83971622  .00000017  00000+0 -10429-5 0  9998
2 43255  86.3963 283.9163 0002248  95.2680 264.8772 14.34217508432419
IRIDIUM 142             
1 43256U 18030H   26183.80800252  .00000106  00000+0  30945-4 0  9998
2 43256  86.3963 283.8178 0002314  98.7343 261.4115 14.34218203432375
IRIDIUM 150             
1 43257U 18030J   26183.70652116  .00000206  00000+0  66650-4 0  9995
2 43257  86.3967 283.9772 0002195  96.2290 263.9156 14.34218323432388
IRIDIUM 143             
1 43258U 18030K   26183.68748993  .00000073  00000+0  19069-4 0  9996
2 43258  86.3968 284.0782 0002259  98.4037 261.7415 14.34216894432315
IRIDIUM 161             
1 43478U 18047C   26183.69910243  .00000378  00000+0  10641-3 0  9992
2 43478  86.4475  81.9854 0002440  79.9577 280.1899 14.43281100427375
IRIDIUM 152             
1 43479U 18047D   26183.66021850 -.00000251  00000+0 -96560-4 0  9994
2 43479  86.3951  81.8624 0002136  81.5878 278.5560 14.34214940424701
IRIDIUM 147             
1 43480U 18047E   26183.45724270  .00000277  00000+0  91735-4 0  9994
2 43480  86.3952  81.9532 0002214  87.4612 272.6837 14.34220530424671
IRIDIUM 110             
1 43481U 18047F   26183.81243368  .00000060  00000+0  14317-4 0  9990
2 43481  86.3953  81.8969 0002359  76.5312 283.6146 14.34217917424717
IRIDIUM 162             
1 43482U 18047G   26183.69279779  .00000365  00000+0  10251-3 0  9992
2 43482  86.4472  81.8786 0002218  83.2263 276.9190 14.43282750427361
IRIDIUM 160             
1 43569U 18061A   26183.61873230  .00000040  00000+0  71013-5 0  9993
2 43569  86.3948  50.3439 0002250  85.9941 274.1512 14.34217839415583
IRIDIUM 166             
1 43570U 18061B   26183.57433420  .00000184  00000+0  58580-4 0  9995
2 43570  86.3947  50.3129 0002225  88.8527 271.2924 14.34218192415605
IRIDIUM 158             
1 43571U 18061C   26183.61238961  .00000015  00000+0 -16719-5 0  9997
2 43571  86.3944  50.3065 0002002  84.1573 275.9851 14.34217469415577
IRIDIUM 165             
1 43572U 18061D   26183.56799145  .00000063  00000+0  15315-4 0  9990
2 43572  86.3948  50.3720 0002164  90.0240 270.1203 14.34217863415594
IRIDIUM 155             
1 43573U 18061E   26183.87877718  .00000160  00000+0  50036-4 0  9995
2 43573  86.3943  50.1102 0002041  86.6083 273.5346 14.34218723415605
IRIDIUM 154             
1 43574U 18061F   26183.85974992  .00000076  00000+0  20193-4 0  9993
2 43574  86.3949  50.2526 0002246  89.6278 270.5175 14.34218220415653
IRIDIUM 163             
1 43575U 18061G   26183.63141727  .00000016  00000+0 -13049-5 0  9990
2 43575  86.3944  50.2626 0002069  83.9398 276.2033 14.34217640415597
